{
  "type": "FeatureCollection",
  "features": [
    {
      "type": "Feature",
      "properties": {
        "name": "地點一 (高雄楠梓) 原始手繪範圍",
        "loc_id": 1
      },
      "geometry": {
        "type": "Polygon",
        "coordinates": [
          [
            [
              120.3068565,
              22.7084783
            ],
            [
              120.31021689999999,
              22.703143499999996
            ],
            [
              120.3119361,
              22.704224900000003
            ],
            [
              120.312952,
              22.705666799999996
            ],
            [
              120.31349910000002,
              22.704513299999995
            ],
            [
              120.3169376,
              22.705883000000007
            ],
            [
              120.3174065,
              22.7056668
            ],
            [
              120.318188,
              22.705882999999996
            ],
            [
              120.3206105,
              22.705450500000005
            ],
            [
              120.3206105,
              22.703648199999996
            ],
            [
              120.3192039,
              22.703143499999996
            ],
            [
              120.3174065,
              22.701196999999997
            ],
            [
              120.3200635,
              22.699610899999993
            ],
            [
              120.3227205,
              22.703431899999998
            ],
            [
              120.3240491,
              22.707036500000005
            ],
            [
              120.3234239,
              22.7129478
            ],
            [
              120.3218609,
              22.718498399999998
            ],
            [
              120.3215483,
              22.720300499999997
            ],
            [
              120.3224079,
              22.721886399999995
            ],
            [
              120.3192039,
              22.7234722
            ],
            [
              120.3175628,
              22.7228235
            ],
            [
              120.3181098,
              22.716191700000007
            ],
            [
              120.3132646,
              22.713236199999997
            ],
            [
              120.3092791,
              22.7146779
            ],
            [
              120.3067784,
              22.7084783
            ],
            [
              120.3068565,
              22.7084783
            ]
          ]
        ]
      }
    }
  ]
}