{
  "type": "FeatureCollection",
  "features": [
    {
      "type": "Feature",
      "properties": {
        "name": "地點二 (臺南仁德) 原始手繪範圍",
        "loc_id": 2
      },
      "geometry": {
        "type": "Polygon",
        "coordinates": [
          [
            [
              120.28972909999999,
              22.9193126
            ],
            [
              120.2928882,
              22.911414800000003
            ],
            [
              120.29499419999999,
              22.911622699999995
            ],
            [
              120.29792750000001,
              22.910860599999996
            ],
            [
              120.29875490000002,
              22.9124541
            ],
            [
              120.3001839,
              22.912938999999994
            ],
            [
              120.30056,
              22.912938999999998
            ],
            [
              120.3013874,
              22.912800499999996
            ],
            [
              120.3021395,
              22.912661900000003
            ],
            [
              120.30379420000001,
              22.911761299999995
            ],
            [
              120.3031925,
              22.911484100000003
            ],
            [
              120.30304209999998,
              22.910929899999996
            ],
            [
              120.3029669,
              22.910583499999994
            ],
            [
              120.30206430000001,
              22.90989069999999
            ],
            [
              120.3018387,
              22.908920699999996
            ],
            [
              120.30229,
              22.908920700000003
            ],
            [
              120.3031173,
              22.909267099999997
            ],
            [
              120.30462160000002,
              22.91037559999999
            ],
            [
              120.30559940000002,
              22.910306399999993
            ],
            [
              120.30559940000002,
              22.909474999999997
            ],
            [
              120.30379420000001,
              22.908435799999996
            ],
            [
              120.30379420000001,
              22.9066344
            ],
            [
              120.3053737,
              22.9069808
            ],
            [
              120.30657720000002,
              22.9071194
            ],
            [
              120.3101122,
              22.9066344
            ],
            [
              120.31093960000001,
              22.908089299999997
            ],
            [
              120.31236870000001,
              22.907812199999995
            ],
            [
              120.31221830000001,
              22.906911499999993
            ],
            [
              120.31409860000001,
              22.906426599999996
            ],
            [
              120.3179345,
              22.906634399999998
            ],
            [
              120.318461,
              22.906980799999996
            ],
            [
              120.3179345,
              22.9076044
            ],
            [
              120.3185363,
              22.908020099999998
            ],
            [
              120.3189875,
              22.9074658
            ],
            [
              120.32049180000001,
              22.907950800000002
            ],
            [
              120.32101830000002,
              22.9088514
            ],
            [
              120.3206423,
              22.910999200000003
            ],
            [
              120.3211688,
              22.910999200000003
            ],
            [
              120.3208679,
              22.9165415
            ],
            [
              120.31958930000002,
              22.917164999999994
            ],
            [
              120.319138,
              22.92249929999999
            ],
            [
              120.3175585,
              22.9253395
            ],
            [
              120.31417380000002,
              22.924369700000003
            ],
            [
              120.31146610000002,
              22.930465699999996
            ],
            [
              120.3085327,
              22.929426599999996
            ],
            [
              120.307555,
              22.930811999999996
            ],
            [
              120.29920620000001,
              22.927694800000005
            ],
            [
              120.2998079,
              22.926032299999992
            ],
            [
              120.29476850000002,
              22.924231099999997
            ],
            [
              120.2961224,
              22.921390899999995
            ],
            [
              120.28972909999999,
              22.9193126
            ]
          ]
        ]
      }
    }
  ]
}